{"type": "FeatureCollection", "features": [ {"type": "Feature", "properties": {"norad_id": 60453, "name": "LEGION 4", "group": "resource", "lat": 27.52925376606889, "lon": -137.60495062376293, "alt_km": 519.9386876508843, "timestamp": "2025-12-06T18:50:09.828783+00:00", "meta": {"OBJECT_NAME": "LEGION 4", "OBJECT_ID": "2024-146B", "EPOCH": "2025-12-06T07:09:07.295040", "MEAN_MOTION": 15.1572309, "ECCENTRICITY": 0.00099275, "INCLINATION": 45.0391, "RA_OF_ASC_NODE": 76.3947, "ARG_OF_PERICENTER": 277.3719, "MEAN_ANOMALY": 82.6031, "EPHEMERIS_TYPE": 0, "CLASSIFICATION_TYPE": "U", "NORAD_CAT_ID": 60453, "ELEMENT_SET_NO": 999, "REV_AT_EPOCH": 7160, "BSTAR": 0.00048570949, "MEAN_MOTION_DOT": 9.171e-05, "MEAN_MOTION_DDOT": 0}, "tle": {"line1": "1 60453U 24146B   25340.29800110  .00009171  00000+0  48571-3 0  9995", "line2": "2 60453  45.0391  76.3947 0009927 277.3719  82.6031 15.15723090 71608"}}, "geometry": {"type": "Point", "coordinates": [-137.60495062376293, 27.52925376606889]}}, {"type": "Feature", "properties": {"norad_id": 60989, "name": "SENTINEL-2C", "group": "resource", "lat": -51.520395903575086, "lon": 64.28716799486679, "alt_km": 796.597372123736, "timestamp": "2025-12-06T18:50:09.828793+00:00", "meta": {"OBJECT_NAME": "SENTINEL-2C", "OBJECT_ID": "2024-157A", "EPOCH": "2025-12-05T22:56:25.455552", "MEAN_MOTION": 14.30814755, "ECCENTRICITY": 0.00010424, "INCLINATION": 98.5686, "RA_OF_ASC_NODE": 52.5358, "ARG_OF_PERICENTER": 105.3336, "MEAN_ANOMALY": 254.7962, "EPHEMERIS_TYPE": 0, "CLASSIFICATION_TYPE": "U", "NORAD_CAT_ID": 60989, "ELEMENT_SET_NO": 999, "REV_AT_EPOCH": 6535, "BSTAR": 0.0001353455, "MEAN_MOTION_DOT": 3.11e-06, "MEAN_MOTION_DDOT": 0}, "tle": {"line1": "1 60989U 24157A   25339.95585018  .00000311  00000+0  13535-3 0  9998", "line2": "2 60989  98.5686  52.5358 0001042 105.3336 254.7962 14.30814755 65354"}}, "geometry": {"type": "Point", "coordinates": [64.28716799486679, -51.520395903575086]}}, {"type": "Feature", "properties": {"norad_id": 61735, "name": "IONOSFERA-M 1", "group": "resource", "lat": 27.048712324080068, "lon": -153.8274921749619, "alt_km": 814.1698635842986, "timestamp": "2025-12-06T18:50:09.828803+00:00", "meta": {"OBJECT_NAME": "IONOSFERA-M 1", "OBJECT_ID": "2024-199A", "EPOCH": "2025-12-06T06:53:33.515808", "MEAN_MOTION": 14.22711832, "ECCENTRICITY": 0.00012644, "INCLINATION": 98.7415, "RA_OF_ASC_NODE": 210.1847, "ARG_OF_PERICENTER": 30.9976, "MEAN_ANOMALY": 329.1276, "EPHEMERIS_TYPE": 0, "CLASSIFICATION_TYPE": "U", "NORAD_CAT_ID": 61735, "ELEMENT_SET_NO": 999, "REV_AT_EPOCH": 10027, "BSTAR": 9.0248873e-05, "MEAN_MOTION_DOT": 1.58e-06, "MEAN_MOTION_DDOT": 0}, "tle": {"line1": "1 61735U 24199A   25340.28719347  .00000158  00000+0  90249-4 0  9993", "line2": "2 61735  98.7415 210.1847 0001264  30.9976 329.1276 14.22711832100279"}}, "geometry": {"type": "Point", "coordinates": [-153.8274921749619, 27.048712324080068]}}, {"type": "Feature", "properties": {"norad_id": 61736, "name": "IONOSFERA-M 2", "group": "resource", "lat": -29.84759108029015, "lon": 25.525946580527176, "alt_km": 822.1305475320805, "timestamp": "2025-12-06T18:50:09.828813+00:00", "meta": {"OBJECT_NAME": "IONOSFERA-M 2", "OBJECT_ID": "2024-199B", "EPOCH": "2025-12-06T06:02:11.358240", "MEAN_MOTION": 14.22714005, "ECCENTRICITY": 0.00014675, "INCLINATION": 98.7414, "RA_OF_ASC_NODE": 210.0619, "ARG_OF_PERICENTER": 118.515, "MEAN_ANOMALY": 241.6176, "EPHEMERIS_TYPE": 0, "CLASSIFICATION_TYPE": "U", "NORAD_CAT_ID": 61736, "ELEMENT_SET_NO": 999, "REV_AT_EPOCH": 10339, "BSTAR": 9.4097382e-05, "MEAN_MOTION_DOT": 1.67e-06, "MEAN_MOTION_DDOT": 0}, "tle": {"line1": "1 61736U 24199B   25340.25152035  .00000167  00000+0  94097-4 0  9991", "line2": "2 61736  98.7414 210.0619 0001467 118.5150 241.6176 14.22714005103395"}}, "geometry": {"type": "Point", "coordinates": [25.525946580527176, -29.84759108029015]}}, {"type": "Feature", "properties": {"norad_id": 63772, "name": "BIOMASS", "group": "resource", "lat": 16.588134717538434, "lon": -11.696922076884956, "alt_km": 669.745223447555, "timestamp": "2025-12-06T18:50:09.828824+00:00", "meta": {"OBJECT_NAME": "BIOMASS", "OBJECT_ID": "2025-090A", "EPOCH": "2025-12-06T06:38:25.854432", "MEAN_MOTION": 14.67527447, "ECCENTRICITY": 0.00011659, "INCLINATION": 98.0712, "RA_OF_ASC_NODE": 165.3798, "ARG_OF_PERICENTER": 63.9111, "MEAN_ANOMALY": 296.2213, "EPHEMERIS_TYPE": 0, "CLASSIFICATION_TYPE": "U", "NORAD_CAT_ID": 63772, "ELEMENT_SET_NO": 999, "REV_AT_EPOCH": 3239, "BSTAR": -0.00051613967, "MEAN_MOTION_DOT": -2.972e-05, "MEAN_MOTION_DDOT": 0}, "tle": {"line1": "1 63772U 25090A   25340.27668813 -.00002972  00000+0 -51614-3 0  9997", "line2": "2 63772  98.0712 165.3798 0001165  63.9111 296.2213 14.67527447 32396"}}, "geometry": {"type": "Point", "coordinates": [-11.696922076884956, 16.588134717538434]}}, {"type": "Feature", "properties": {"norad_id": 64694, "name": "GOSAT-GW (IBUKI GW)", "group": "resource", "lat": 11.956121938041726, "lon": -85.31008245307254, "alt_km": 669.7881814156281, "timestamp": "2025-12-06T18:50:09.828834+00:00", "meta": {"OBJECT_NAME": "GOSAT-GW (IBUKI GW)", "OBJECT_ID": "2025-141A", "EPOCH": "2025-12-05T23:08:42.709344", "MEAN_MOTION": 14.67572391, "ECCENTRICITY": 0.00014336, "INCLINATION": 98.042, "RA_OF_ASC_NODE": 275.6001, "ARG_OF_PERICENTER": 84.7935, "MEAN_ANOMALY": 275.3433, "EPHEMERIS_TYPE": 0, "CLASSIFICATION_TYPE": "U", "NORAD_CAT_ID": 64694, "ELEMENT_SET_NO": 999, "REV_AT_EPOCH": 2350, "BSTAR": 0.00038181618, "MEAN_MOTION_DOT": 2.12e-05, "MEAN_MOTION_DDOT": 0}, "tle": {"line1": "1 64694U 25141A   25339.96438321  .00002120  00000+0  38182-3 0  9999", "line2": "2 64694  98.0420 275.6001 0001433  84.7935 275.3433 14.67572391 23504"}}, "geometry": {"type": "Point", "coordinates": [-85.31008245307254, 11.956121938041726]}}, {"type": "Feature", "properties": {"norad_id": 64876, "name": "IONOSFERA-M 3", "group": "resource", "lat": -75.51462092598152, "lon": -21.43243992930895, "alt_km": 829.2224922634005, "timestamp": "2025-12-06T18:50:09.828844+00:00", "meta": {"OBJECT_NAME": "IONOSFERA-M 3", "OBJECT_ID": "2025-155A", "EPOCH": "2025-12-06T07:22:41.575296", "MEAN_MOTION": 14.2143863, "ECCENTRICITY": 0.00023622, "INCLINATION": 98.5775, "RA_OF_ASC_NODE": 302.3559, "ARG_OF_PERICENTER": 70.1929, "MEAN_ANOMALY": 289.9503, "EPHEMERIS_TYPE": 0, "CLASSIFICATION_TYPE": "U", "NORAD_CAT_ID": 64876, "ELEMENT_SET_NO": 999, "REV_AT_EPOCH": 1900, "BSTAR": 9.9540493e-05, "MEAN_MOTION_DOT": 1.75e-06, "MEAN_MOTION_DDOT": 0}, "tle": {"line1": "1 64876U 25155A   25340.30742564  .00000175  00000+0  99540-4 0  9997", "line2": "2 64876  98.5775 302.3559 0002362  70.1929 289.9503 14.21438630 19000"}}, "geometry": {"type": "Point", "coordinates": [-21.43243992930895, -75.51462092598152]}}, {"type": "Feature", "properties": {"norad_id": 64877, "name": "IONOSFERA-M 4", "group": "resource", "lat": 74.94134319452625, "lon": 156.86209627032608, "alt_km": 812.3065073328999, "timestamp": "2025-12-06T18:50:09.828854+00:00", "meta": {"OBJECT_NAME": "IONOSFERA-M 4", "OBJECT_ID": "2025-155B", "EPOCH": "2025-12-06T04:50:28.118112", "MEAN_MOTION": 14.21439557, "ECCENTRICITY": 0.00017233, "INCLINATION": 98.5773, "RA_OF_ASC_NODE": 302.1728, "ARG_OF_PERICENTER": 70.1358, "MEAN_ANOMALY": 290.0005, "EPHEMERIS_TYPE": 0, "CLASSIFICATION_TYPE": "U", "NORAD_CAT_ID": 64877, "ELEMENT_SET_NO": 999, "REV_AT_EPOCH": 1898, "BSTAR": 0.00010157422, "MEAN_MOTION_DOT": 1.79e-06, "MEAN_MOTION_DDOT": 0}, "tle": {"line1": "1 64877U 25155B   25340.20171433  .00000179  00000+0  10157-3 0  9998", "line2": "2 64877  98.5773 302.1728 0001723  70.1358 290.0005 14.21439557 18986"}}, "geometry": {"type": "Point", "coordinates": [156.86209627032608, 74.94134319452625]}}, {"type": "Feature", "properties": {"norad_id": 64899, "name": "MICROCARB", "group": "resource", "lat": -72.16837602570928, "lon": -149.71018726100456, "alt_km": 661.9992908771819, "timestamp": "2025-12-06T18:50:09.828864+00:00", "meta": {"OBJECT_NAME": "MICROCARB", "OBJECT_ID": "2025-156A", "EPOCH": "2025-12-06T04:38:08.848608", "MEAN_MOTION": 14.72040251, "ECCENTRICITY": 0.00166946, "INCLINATION": 98.003, "RA_OF_ASC_NODE": 55.6434, "ARG_OF_PERICENTER": 165.0758, "MEAN_ANOMALY": 195.0946, "EPHEMERIS_TYPE": 0, "CLASSIFICATION_TYPE": "U", "NORAD_CAT_ID": 64899, "ELEMENT_SET_NO": 999, "REV_AT_EPOCH": 1957, "BSTAR": 0.0002290977, "MEAN_MOTION_DOT": 1.392e-05, "MEAN_MOTION_DDOT": 0}, "tle": {"line1": "1 64899U 25156A   25340.19315797  .00001392  00000+0  22910-3 0  9992", "line2": "2 64899  98.0030  55.6434 0016694 165.0758 195.0946 14.72040251 19575"}}, "geometry": {"type": "Point", "coordinates": [-149.71018726100456, -72.16837602570928]}}, {"type": "Feature", "properties": {"norad_id": 64900, "name": "CO3D 3", "group": "resource", "lat": -15.127934075407815, "lon": 59.26112169019291, "alt_km": 510.5850323869945, "timestamp": "2025-12-06T18:50:09.828874+00:00", "meta": {"OBJECT_NAME": "CO3D 3", "OBJECT_ID": "2025-156B", "EPOCH": "2025-12-06T06:15:54.788256", "MEAN_MOTION": 15.20214624, "ECCENTRICITY": 0.00013685, "INCLINATION": 97.4347, "RA_OF_ASC_NODE": 56.7217, "ARG_OF_PERICENTER": 116.3134, "MEAN_ANOMALY": 243.8242, "EPHEMERIS_TYPE": 0, "CLASSIFICATION_TYPE": "U", "NORAD_CAT_ID": 64900, "ELEMENT_SET_NO": 999, "REV_AT_EPOCH": 2022, "BSTAR": 0.00050332501, "MEAN_MOTION_DOT": 0.00010848, "MEAN_MOTION_DDOT": 0}, "tle": {"line1": "1 64900U 25156B   25340.26105079  .00010848  00000+0  50333-3 0  9999", "line2": "2 64900  97.4347  56.7217 0001368 116.3134 243.8242 15.20214624 20228"}}, "geometry": {"type": "Point", "coordinates": [59.26112169019291, -15.127934075407815]}}]}